[{"OBJECT_NAME":"TRANSPORTER-12 OBJECT AZ","OBJECT_ID":"2025-009AZ","EPOCH":"2026-03-09T17:02:46.667040","MEAN_MOTION":15.30349724,"ECCENTRICITY":9.87e-5,"INCLINATION":97.3981,"RA_OF_ASC_NODE":151.9913,"ARG_OF_PERICENTER":45.3581,"MEAN_ANOMALY":314.774,"EPHEMERIS_TYPE":0,"CLASSIFICATION_TYPE":"U","NORAD_CAT_ID":62656,"ELEMENT_SET_NO":999,"REV_AT_EPOCH":6379,"BSTAR":0.00054902545,"MEAN_MOTION_DOT":0.00016057,"MEAN_MOTION_DDOT":0},{"OBJECT_NAME":"STARLINK-34800","OBJECT_ID":"2025-190L","EPOCH":"2026-03-09T13:58:47.808192","MEAN_MOTION":15.3019755,"ECCENTRICITY":0.0001004,"INCLINATION":53.1584,"RA_OF_ASC_NODE":168.3357,"ARG_OF_PERICENTER":95.1229,"MEAN_ANOMALY":264.9886,"EPHEMERIS_TYPE":0,"CLASSIFICATION_TYPE":"U","NORAD_CAT_ID":65361,"ELEMENT_SET_NO":999,"REV_AT_EPOCH":2927,"BSTAR":0.0010317,"MEAN_MOTION_DOT":0.00030318,"MEAN_MOTION_DDOT":0}]
