TRANSPORTER-12 OBJECT AZ
1 62656U 25009AZ  26068.71026235  .00016057  00000+0  54903-3 0  9991
2 62656  97.3981 151.9913 0000987  45.3581 314.7740 15.30349724 63792
STARLINK-34800          
1 65361U 25190L   26068.58249778  .00030318  00000+0  10317-2 0  9998
2 65361  53.1584 168.3357 0001004  95.1229 264.9886 15.30197550 29274
